STARLINK-5452           
1 54772U 22175Q   26068.26667257  .00000272  00000+0  35217-4 0  9997
2 54772  53.2202  31.1651 0001524  86.8837 273.2330 15.08829154180068
LEMUR-2-MARHISYAM       
1 60536U 24149BW  26068.74036894  .00013075  00000+0  82973-3 0  9990
2 60536  97.6912 151.2662 0003578 107.3271 252.8349 15.09015520 85478
